NORAD_CAT_ID,OBJECT_NAME,OBJECT_TYPE,EPOCH,MEAN_MOTION,ECCENTRICITY,INCLINATION,RA_OF_ASC_NODE,ARG_OF_PERICENTER,MEAN_ANOMALY,BSTAR,MEAN_MOTION_DOT,MEAN_MOTION_DDOT,TLE_LINE0,TLE_LINE1,TLE_LINE2,SEMIMAJOR_AXIS,PERIOD,APOGEE,PERIGEE,DECAYED
52138.0,STARLINK-3723,PAYLOAD,2022-08-04 22:00:00,15.08828105,0.000179,53.2173,202.3706,63.3668,307.7224,0.0022517,0.00035718,0.0,0 STARLINK-3723,1 52138U 22029BC  22216.91667824  .00035718  00000-0  22517-2 0  9993,2 52138  53.2173 202.3706 0001790  63.3668 307.7224 15.08828105  1308,6917.917,95.438,541.02,538.543,0.0
52138.0,STARLINK-3723,PAYLOAD,2022-08-05 06:00:02,15.08848654,0.0001946,53.2172,200.8759,58.0228,324.7273,-0.00083041,-0.00013483,0.0,0 STARLINK-3723,1 52138U 22029BC  22217.25002315 -.00013483  00000-0 -83041-3 0  9996,2 52138  53.2172 200.8759 0001946  58.0228 324.7273 15.08848654 22806,6917.854,95.437,541.065,538.373,0.0
52138.0,STARLINK-3723,PAYLOAD,2022-08-05 14:00:01,15.08864821,0.0001878,53.2169,199.379,57.74,336.607,-0.0021522,-0.00034401,0.0,0 STARLINK-3723,1 52138U 22029BC  22217.58335648 -.00034401  00000-0 -21522-2 0  9998,2 52138  53.2169 199.3790 0001878  57.7400 336.6070 15.08864821  1304,6917.805,95.436,540.969,538.37,0.0
52138.0,STARLINK-3723,PAYLOAD,2022-08-05 22:00:00,15.08852721,0.000176,53.2171,197.8817,64.2068,341.6893,-0.00065642,-0.00010724,0.0,0 STARLINK-3723,1 52138U 22029BC  22217.91667824 -.00010724  00000-0 -65642-3 0  9993,2 52138  53.2171 197.8817 0001760  64.2068 341.6893 15.08852721 22907,6917.842,95.437,540.924,538.489,0.0
52138.0,STARLINK-3723,PAYLOAD,2022-08-06 14:00:01,15.08844371,0.0001789,53.2165,194.89,58.2748,10.8029,-0.0021341999999999,-0.00034098,0.0,0 STARLINK-3723,1 52138U 22029BC  22218.58334491 -.00034098  00000-0 -21342-2 0  9996,2 52138  53.2165 194.8900 0001789  58.2748  10.8029 15.08844371  1308,6917.8669999999975,95.437,540.97,538.494,0.0
52138.0,STARLINK-3723,PAYLOAD,2022-08-06 22:00:00,15.08824041,0.0001733,53.2165,193.3928,65.3917,15.2713,0.0014765,0.00023278,0.0,0 STARLINK-3723,1 52138U 22029BC  22218.91667824  .00023278  00000-0  14765-2 0  9999,2 52138  53.2165 193.3928 0001733  65.3917  15.2713 15.08824041  1309,6917.929,95.439,540.993,538.595,0.0
52138.0,STARLINK-3723,PAYLOAD,2022-08-07 04:00:00,15.08842003,0.0001831999999999,53.2162,192.2721,60.3732,298.9782,-0.0014234,-0.00022872,0.0,0 STARLINK-3723,1 52138U 22029BC  22219.16667824 -.00022872  00000-0 -14234-2 0  9999,2 52138  53.2162 192.2721 0001832  60.3732 298.9782 15.08842003 23099,6917.874,95.437,541.007,538.472,0.0
52138.0,STARLINK-3723,PAYLOAD,2022-08-07 14:00:01,15.08850006,0.0001814,53.2158,190.4011,60.7009,43.1304,-0.0020486,-0.00032753,0.0,0 STARLINK-3723,1 52138U 22029BC  22219.58334491 -.00032753  00000-0 -20486-2 0  9991,2 52138  53.2158 190.4011 0001814  60.7009  43.1304 15.08850006  1309,6917.85,95.437,540.97,538.46,0.0
52138.0,STARLINK-3723,PAYLOAD,2022-08-07 20:00:01,15.08817434,0.0001749,53.2157,189.2779,66.491,316.0456,0.0029529,0.00046992,0.0,0 STARLINK-3723,1 52138U 22029BC  22219.83334491  .00046992  00000-0  29529-2 0  9994,2 52138  53.2157 189.2779 0001749  66.4910 316.0456 15.08817434 23195,6917.949000000001,95.439,541.024,538.604,0.0
52138.0,STARLINK-3723,PAYLOAD,2022-08-07 22:00:00,15.08837938,0.0001793,53.2159,188.9039,67.3581,48.0681,0.0011217,0.00017608,0.0,0 STARLINK-3723,1 52138U 22029BC  22219.91667824  .00017608  00000-0  11217-2 0  9999,2 52138  53.2159 188.9039 0001793  67.3581  48.0681 15.08837938  1307,6917.887,95.438,540.992,538.511,0.0
52138.0,STARLINK-3723,PAYLOAD,2022-08-08 14:00:01,15.08870894,0.0001827,53.2154,185.9118,62.5658,76.1333,-0.0014754,-0.00023712,0.0,0 STARLINK-3723,1 52138U 22029BC  22220.58335648 -.00023712  00000-0 -14754-2 0  9994,2 52138  53.2154 185.9118 0001827  62.5658  76.1333 15.08870894 23305,6917.786,95.436,540.915,538.387,0.0
52138.0,STARLINK-3723,PAYLOAD,2022-08-08 22:00:00,15.08874931,0.0001784,53.2157,184.4147,67.9771,82.2781,-0.002044,-0.00032703,0.0,0 STARLINK-3723,1 52138U 22029BC  22220.91667824 -.00032703  00000-0 -20440-2 0  9994,2 52138  53.2157 184.4147 0001784  67.9771  82.2781 15.08874931  1308,6917.774,95.435,540.873,538.404,0.0
52138.0,STARLINK-3723,PAYLOAD,2022-08-09 14:00:01,15.08838076,0.0001668,53.2156,181.4225,59.5318,113.9377,-0.0020846,-0.0003331,0.0,0 STARLINK-3723,1 52138U 22029BC  22221.58334491 -.00033310  00000-0 -20846-2 0  9994,2 52138  53.2156 181.4225 0001668  59.5318 113.9377 15.08838076  1309,6917.886,95.438,540.905,538.597,0.0
52138.0,STARLINK-3723,PAYLOAD,2022-08-09 22:00:00,15.08829427,0.0001696999999999,53.2161,179.9256,65.0313,120.0117,0.00063372,9.809e-05,0.0,0 STARLINK-3723,1 52138U 22029BC  22221.91667824  .00009809  00000-0  63372-3 0  9996,2 52138  53.2161 179.9256 0001697  65.0313 120.0117 15.08829427 23507,6917.913000000001,95.438,540.952,538.604,0.0
52138.0,STARLINK-3723,PAYLOAD,2022-08-10 14:00:01,15.08854037,0.000172,53.2164,176.9333,59.8934,148.3208,-0.0016024999999999,-0.00025711,0.0,0 STARLINK-3723,1 52138U 22029BC  22222.58334491 -.00025711  00000-0 -16025-2 0  9995,2 52138  53.2164 176.9333 0001720  59.8934 148.3208 15.08854037  1303,6917.837,95.437,540.8919999999998,538.513,0.0
52138.0,STARLINK-3723,PAYLOAD,2022-08-10 22:00:00,15.08890702,0.0001808,53.2169,175.4395,66.2737,153.5225,-0.0064713,-0.00101967,0.0,0 STARLINK-3723,1 52138U 22029BC  22222.91667824 -.00101967  00000-0 -64713-2 0  9996,2 52138  53.2169 175.4395 0001808  66.2737 153.5225 15.08890702  1306,6917.725,95.434,540.841,538.34,0.0
52138.0,STARLINK-3723,PAYLOAD,2022-08-11 06:00:02,15.0881704,0.0001849,53.2171,173.9419,56.1999,175.2868,0.0012828,0.00020174,0.0,0 STARLINK-3723,1 52138U 22029BC  22223.25002315  .00020174  00000-0  12828-2 0  9990,2 52138  53.2171 173.9419 0001849  56.1999 175.2868 15.08817040 23708,6917.951,95.439,541.095,538.536,0.0
52138.0,STARLINK-3723,PAYLOAD,2022-08-11 14:00:01,15.08839742,0.0001701,53.2174,172.4442,59.3267,183.6737,-0.00092953,-0.00015051,0.0,0 STARLINK-3723,1 52138U 22029BC  22223.58334491 -.00015051  00000-0 -92953-3 0  9997,2 52138  53.2174 172.4442 0001701  59.3267 183.6737 15.08839742  1304,6917.880999999999,95.438,540.923,538.569,0.0
52138.0,STARLINK-3723,PAYLOAD,2022-08-12 14:00:01,15.08840012,0.0001612,53.2181,167.9553,59.4353,218.3617,-0.00060543,-9.911e-05,0.0,0 STARLINK-3723,1 52138U 22029BC  22224.58334491 -.00009911  00000-0 -60543-3 0  9996,2 52138  53.2181 167.9553 0001612  59.4353 218.3617 15.08840012 23907,6917.88,95.438,540.861,538.63,0.0
52138.0,STARLINK-3723,PAYLOAD,2022-08-12 22:00:01,15.08848261,0.0001606,53.2183,166.4591,63.2269,226.2103,-0.00039522,-6.574e-05,0.0,0 STARLINK-3723,1 52138U 22029BC  22224.91668981 -.00006574  00000-0 -39522-3 0  9992,2 52138  53.2183 166.4591 0001606  63.2269 226.2103 15.08848261  1309,6917.855,95.437,540.831,538.609,0.0
52138.0,STARLINK-3723,PAYLOAD,2022-08-13 14:00:01,15.08819047,0.0001587,53.2182,163.4666,60.9849,251.5798,-0.0020336,-0.00032489,0.0,0 STARLINK-3723,1 52138U 22029BC  22225.58334491 -.00032489  00000-0 -20336-2 0  9998,2 52138  53.2182 163.4666 0001587  60.9849 251.5798 15.08819047  1305,6917.944,95.439,540.9069999999998,538.712,0.0
52138.0,STARLINK-3723,PAYLOAD,2022-08-13 22:00:00,15.088178699999998,0.0001628,53.2183,161.9706,65.358,258.757,-0.00071644,-0.00011665,0.0,0 STARLINK-3723,1 52138U 22029BC  22225.91667824 -.00011665  00000-0 -71644-3 0  9996,2 52138  53.2183 161.9706 0001628  65.3580 258.7570 15.08817870  1300,6917.948,95.439,540.939,538.687,0.0
52138.0,STARLINK-3723,PAYLOAD,2022-08-14 14:00:01,15.08846076,0.0001545,53.2178,158.9779,63.2374,284.086,-0.00026356,-4.481e-05,0.0,0 STARLINK-3723,1 52138U 22029BC  22226.58334491 -.00004481  00000-0 -26356-3 0  9999,2 52138  53.2178 158.9779 0001545  63.2374 284.0860 15.08846076 24215,6917.861999999999,95.437,540.7959999999998,538.658,0.0
52138.0,STARLINK-3723,PAYLOAD,2022-08-14 22:00:00,15.08852518,0.0001649,53.2178,157.482,66.3108,292.6087,-0.0022708,-0.00036259,0.0,0 STARLINK-3723,1 52138U 22029BC  22226.91667824 -.00036259  00000-0 -22708-2 0  9999,2 52138  53.2178 157.4820 0001649  66.3108 292.6087 15.08852518  1309,6917.842,95.437,540.8480000000002,538.566,0.0
52138.0,STARLINK-3723,PAYLOAD,2022-08-15 14:00:01,15.08828593,0.0001641,53.2172,154.4891,66.4884,315.6097,0.00054005,8.315e-05,0.0,0 STARLINK-3723,1 52138U 22029BC  22227.58334491  .00008315  00000-0  54005-3 0  9990,2 52138  53.2172 154.4891 0001641  66.4884 315.6097 15.08828593  1305,6917.915,95.438,540.915,538.645,0.0
52138.0,STARLINK-3723,PAYLOAD,2022-08-15 22:00:00,15.08848427,0.0001659,53.2171,152.9933,66.7998,326.8817,-0.0029329,-0.00046674,0.0,0 STARLINK-3723,1 52138U 22029BC  22227.91667824 -.00046674  00000-0 -29329-2 0  9998,2 52138  53.2171 152.9933 0001659  66.7998 326.8817 15.08848427  1304,6917.855,95.437,540.867,538.572,0.0
52138.0,STARLINK-3723,PAYLOAD,2022-08-16 14:00:01,15.08814119,0.0001607,53.2167,150.0001,66.1582,350.6896,0.001882,0.0002976999999999,0.0,0 STARLINK-3723,1 52138U 22029BC  22228.58334491  .00029770  00000-0  18820-2 0  9993,2 52138  53.2167 150.0001 0001607  66.1582 350.6896 15.08814119 24511,6917.959,95.439,540.936,538.7130000000002,0.0
52138.0,STARLINK-3723,PAYLOAD,2022-08-16 22:00:00,15.08853884,0.0001706,53.2167,148.5044,66.2046,2.2155,-0.0014735,-0.00023671,0.0,0 STARLINK-3723,1 52138U 22029BC  22228.91667824 -.00023671  00000-0 -14735-2 0  9996,2 52138  53.2167 148.5044 0001706  66.2046   2.2155 15.08853884  1308,6917.8380000000025,95.437,540.883,538.523,0.0
52138.0,STARLINK-3723,PAYLOAD,2022-08-17 14:00:01,15.0880559,0.0001571,53.2167,145.5108,64.6077,27.0174,0.0022675,0.0003595,0.0,0 STARLINK-3723,1 52138U 22029BC  22229.58334491  .00035950  00000-0  22675-2 0  9994,2 52138  53.2167 145.5108 0001571  64.6077  27.0174 15.08805590 24663,6917.986,95.44,540.937,538.764,0.0
